ONEWEB-0271             
1 48989U 21060Y   25121.95128245  .00000053  00000+0  10390-3 0  9997
2 48989  87.9017 310.7429 0001488  85.3252 274.8048 13.16596985186847
ONEWEB-0272             
1 48990U 21060Z   25121.97345547  .00000079  00000+0  17243-3 0  9999
2 48990  87.9014 310.7703 0001568  86.2166 273.9144 13.16592408186803
ONEWEB-0273             
1 48991U 21060AA  25121.91962145  .00000060  00000+0  12327-3 0  9991
2 48991  87.9017 310.7662 0001580  92.9273 267.2039 13.16593246186774
ONEWEB-0274             
1 48992U 21060AB  25121.94497887 -.00000017  00000+0 -79168-4 0  9992
2 48992  87.9022 310.7962 0001833  78.3446 281.7890 13.16595238186819
ONEWEB-0275             
1 48993U 21060AC  25121.93387105  .00000037  00000+0  62539-4 0  9997
2 48993  87.9017 310.7569 0001665  86.8862 273.2459 13.16596814186735
ONEWEB-0276             
1 48994U 21060AD  25121.96713149  .00000230  00000+0  56757-3 0  9991
2 48994  87.9016 310.7475 0001443  94.2594 265.8702 13.16592054186763
ONEWEB-0277             
1 48995U 21060AE  25121.90379876  .00000130  00000+0  30602-3 0  9991
2 48995  87.9016 310.7971 0001353  81.0282 279.1002 13.16593770186737
ONEWEB-0278             
1 48996U 21060AF  25121.97029203  .00000018  00000+0  13578-4 0  9994
2 48996  87.9012 310.7429 0001836  97.4589 262.6751 13.16591999186895
ONEWEB-0279             
1 48997U 21060AG  25121.90221019  .00000149  00000+0  35566-3 0  9992
2 48997  87.9017 310.7534 0001531  80.7769 279.3535 13.16592363186807
ONEWEB-0280             
1 48998U 21060AH  25121.91726937  .00000090  00000+0  20253-3 0  9995
2 48998  87.9020 310.7561 0001436  97.7294 262.3999 13.16594757186734
ONEWEB-0281             
1 48999U 21060AJ  25121.92278670 -.00000015  00000+0 -71820-4 0  9999
2 48999  87.9016 310.7533 0001839  85.7959 274.3382 13.16596449186820
ONEWEB-0282             
1 49000U 21060AK  25121.57288822  .00000030  00000+0  43730-4 0  9998
2 49000  87.9014 310.8392 0001544  92.4319 267.6988 13.16592972185445
ONEWEB-0283             
1 49001U 21060AL  25121.94179392 -.00000034  00000+0 -12133-3 0  9999
2 49001  87.9012 310.7693 0001600  86.1836 273.9477 13.16592688186824
ONEWEB-0284             
1 49002U 21060AM  25121.93545307 -.00000035  00000+0 -12582-3 0  9991
2 49002  87.9006 310.7346 0001803 102.0045 258.1288 13.16591124186793
ONEWEB-0285             
1 49075U 21075A   25121.91327784  .00000300  00000+0  79928-3 0  9992
2 49075  87.8863  72.4805 0001963  83.8629 276.2723 13.12444129182245
ONEWEB-0286             
1 49076U 21075B   25121.89068942 -.00000321  00000+0 -93402-3 0  9996
2 49076  87.8887  72.4918 0002262  83.9136 276.2250 13.11891289181598
ONEWEB-0287             
1 49077U 21075C   25121.89636635  .00000061  00000+0  12355-3 0  9994
2 49077  87.9036  87.7606 0002414  90.1542 269.9866 13.17650978180437
ONEWEB-0288             
1 49078U 21075D   25121.87095745  .00000005  00000+0 -21288-4 0  9999
2 49078  87.8860  72.4841 0002040  87.7862 272.3500 13.12440673182222
ONEWEB-0289             
1 49079U 21075E   25121.84911522 -.00000029  00000+0 -10814-3 0  9996
2 49079  87.9035  87.8012 0001787  98.3779 261.7556 13.17650357180037
ONEWEB-0290             
1 49080U 21075F   25121.90817521  .00000048  00000+0  89487-4 0  9991
2 49080  87.9033  87.7459 0001441  97.6272 262.5024 13.17650998180432
ONEWEB-0291             
1 49081U 21075G   25121.89299467  .00000047  00000+0  89002-4 0  9995
2 49081  87.9030  87.7545 0002058  91.2264 268.9103 13.17647653180434
ONEWEB-0293             
1 49082U 21075H   25121.91830937  .00000021  00000+0  21709-4 0  9994
2 49082  87.9034  87.7792 0001930  87.9690 272.1662 13.17648379180451
ONEWEB-0294             
1 49083U 21075J   25121.87744775 -.00000227  00000+0 -66702-3 0  9995
2 49083  87.8860  72.4819 0001784  97.2311 262.9020 13.12442202181616
ONEWEB-0295             
1 49084U 21075K   25121.91744575  .00000069  00000+0  14526-3 0  9998
2 49084  87.9050  87.7664 0002287  91.9032 268.2361 13.17646976180396
ONEWEB-0296             
1 49085U 21075L   25121.85798772  .00000334  00000+0  89370-3 0  9994
2 49085  87.8860  72.4936 0002260  98.0907 262.0478 13.12441216180620
ONEWEB-0297             
1 49086U 21075M   25121.88879074 -.00000334  00000+0 -96377-3 0  9990
2 49086  87.8871  72.5180 0002098  82.4067 277.7299 13.12440934182226
ONEWEB-0298             
1 49087U 21075N   25121.92181752  .00000066  00000+0  13629-3 0  9994
2 49087  87.9037  87.7760 0002266  83.6496 276.4894 13.17650360180451
ONEWEB-0299             
1 49088U 21075P   25121.92336398  .00000057  00000+0  11430-3 0  9991
2 49088  87.9031  87.7312 0002270  84.2561 275.8829 13.17651245180414
ONEWEB-0300             
1 49089U 21075Q   25121.88068493 -.00000266  00000+0 -77391-3 0  9997
2 49089  87.8860  72.4797 0002082  72.3523 287.7833 13.12440436182242
ONEWEB-0301             
1 49090U 21075R   25121.94072028  .00000246  00000+0  64759-3 0  9995
2 49090  87.8861  72.4735 0001991  73.7252 286.4096 13.12442377181612
ONEWEB-0302             
1 49091U 21075S   25121.92771815  .00000440  00000+0  11887-2 0  9993
2 49091  87.8862  72.4769 0001901  94.3899 265.7447 13.12444962181609
ONEWEB-0304             
1 49092U 21075T   25121.89805268  .00000070  00000+0  14662-3 0  9994
2 49092  87.9035  87.7647 0002148  87.3811 272.7566 13.17650345180391
ONEWEB-0305             
1 49093U 21075U   25121.89130196  .00000048  00000+0  90271-4 0  9992
2 49093  87.9032  87.7448 0002455  89.1262 271.0151 13.17649828180418
ONEWEB-0308             
1 49094U 21075V   25121.92125568  .00000443  00000+0  11952-2 0  9990
2 49094  87.8861  72.4737 0001951  80.2998 279.8351 13.12443293181634
ONEWEB-0309             
1 49095U 21075W   25121.89468048  .00000026  00000+0  32902-4 0  9997
2 49095  87.9036  87.7588 0001850  99.3488 260.7853 13.17647700180400
ONEWEB-0310             
1 49096U 21075X   25121.93583918  .00000358  00000+0  95913-3 0  9995
2 49096  87.8870  72.5083 0001916  85.0294 275.1053 13.12441137182245
ONEWEB-0311             
1 49097U 21075Y   25121.90143346  .00000060  00000+0  12112-3 0  9990
2 49097  87.9038  87.7586 0002442  87.9514 272.1897 13.17648899180464
ONEWEB-0312             
1 49098U 21075Z   25121.91661255  .00000082  00000+0  17915-3 0  9996
2 49098  87.9036  87.7865 0002258  93.5957 266.5433 13.17649690180421
ONEWEB-0313             
1 49099U 21075AA  25121.92156867  .00000069  00000+0  14322-3 0  9990
2 49099  87.9035  87.8015 0002214  83.1795 276.9588 13.17656198180434
ONEWEB-0314             
1 49100U 21075AB  25121.96386684  .00000046  00000+0  84294-4 0  9990
2 49100  87.9030  87.7264 0002281  92.9519 267.1874 13.17648955180402
ONEWEB-0315             
1 49101U 21075AC  25121.90989017  .00000593  00000+0  16115-2 0  9996
2 49101  87.8858  72.4665 0002138  75.0656 285.0709 13.12442885182228
ONEWEB-0316             
1 49102U 21075AD  25121.83302067  .00000016  00000+0  86055-5 0  9996
2 49102  87.9146  57.2241 0002192  80.4186 279.7193 13.18687410182991
ONEWEB-0317             
1 49103U 21075AE  25121.90342271 -.00000071  00000+0 -23147-3 0  9990
2 49103  87.8861  72.4822 0001263  96.4650 263.6623 13.12445471182230
ONEWEB-0318             
1 49104U 21075AF  25121.82986521 -.00000008  00000+0 -52100-4 0  9996
2 49104  87.9142  57.2106 0002310  80.7424 279.3969 13.18687066182959
ONEWEB-0319             
1 49105U 21075AG  25121.90311525  .00000048  00000+0  89857-4 0  9993
2 49105  87.9035  87.7835 0002482  87.0453 273.0963 13.17650699180437
ONEWEB-0323             
1 49106U 21075AH  25121.89365707 -.00000564  00000+0 -16037-2 0  9996
2 49106  87.8860  72.4704 0002774  85.9508 274.1938 13.12443180181605
ONEWEB-0329             
1 49107U 21075AJ  25121.91155455  .00000028  00000+0  39032-4 0  9992
2 49107  87.9035  87.7866 0002198  87.9922 272.1461 13.17648158180415
ONEWEB-0330             
1 49108U 21075AK  25121.91323732  .00000039  00000+0  65959-4 0  9997
2 49108  87.9035  87.7887 0002077  90.8219 269.3151 13.17649495180450
ONEWEB-0292             
1 49186U 21083A   25121.80655129 -.00000196  00000+0 -57210-3 0  9994
2 49186  87.8994  42.0168 0002088  77.5982 282.5381 13.13471439176922
ONEWEB-0303             
1 49187U 21083B   25121.82670327  .00000003  00000+0 -25088-4 0  9999
2 49187  87.9143  57.2133 0002181  79.9975 280.1403 13.18687854175767
ONEWEB-0306             
1 49188U 21083C   25121.81721553  .00000069  00000+0  14351-3 0  9998
2 49188  87.9142  57.1998 0001841  82.5446 277.5895 13.18687628175809
ONEWEB-0307             
1 49189U 21083D   25121.80062019 -.00000244  00000+0 -70420-3 0  9999
2 49189  87.8996  42.0211 0001632  86.9424 273.1892 13.13469516176921
ONEWEB-0320             
1 49190U 21083E   25121.82352899 -.00000005  00000+0 -44629-4 0  9999
2 49190  87.9147  57.2275 0001977  81.0400 279.0956 13.18688131175760
ONEWEB-0321             
1 49191U 21083F   25121.69004935  .00000055  00000+0  10437-3 0  9992
2 49191  87.9299 356.3741 0001449  81.8080 278.3218 13.20772298182511
ONEWEB-0322             
1 49192U 21083G   25121.79638022 -.00000188  00000+0 -54856-3 0  9996
2 49192  87.8996  42.0117 0001516  77.8129 282.3170 13.13468065176910
ONEWEB-0324             
1 49193U 21083H   25121.88517732  .00000108  00000+0  24103-3 0  9993
2 49193  87.9144  57.1942 0002082  86.7201 273.4170 13.18688200177078
ONEWEB-0325             
1 49194U 21083J   25121.88993045  .00000109  00000+0  24482-3 0  9990
2 49194  87.9144  57.2108 0001891  78.8264 281.3081 13.18686600177084
ONEWEB-0326             
1 49195U 21083K   25121.82840691  .00000027  00000+0  35334-4 0  9991
2 49195  87.9142  57.2144 0002418  78.8302 281.3102 13.18686560175786
ONEWEB-0327             
1 49196U 21083L   25121.90402067  .00000073  00000+0  15154-3 0  9990
2 49196  87.9144  57.2273 0002292  77.2557 282.8831 13.18686520177094
